[{"OBJECT_NAME":"WGS F1 (USA 195)","OBJECT_ID":"2007-046A","EPOCH":"2026-03-04T08:06:38.530080","MEAN_MOTION":1.00276051,"ECCENTRICITY":2.857e-5,"INCLINATION":0.0806,"RA_OF_ASC_NODE":87.7283,"ARG_OF_PERICENTER":201.3899,"MEAN_ANOMALY":312.1055,"EPHEMERIS_TYPE":0,"CLASSIFICATION_TYPE":"U","NORAD_CAT_ID":32258,"ELEMENT_SET_NO":999,"REV_AT_EPOCH":5128,"BSTAR":0,"MEAN_MOTION_DOT":-2.79e-6,"MEAN_MOTION_DDOT":0},{"OBJECT_NAME":"SKYNET 5B","OBJECT_ID":"2007-056B","EPOCH":"2026-03-04T20:20:56.808672","MEAN_MOTION":1.0027117,"ECCENTRICITY":0.0004012,"INCLINATION":4.9861,"RA_OF_ASC_NODE":74.7479,"ARG_OF_PERICENTER":269.1783,"MEAN_ANOMALY":148.9531,"EPHEMERIS_TYPE":0,"CLASSIFICATION_TYPE":"U","NORAD_CAT_ID":32294,"ELEMENT_SET_NO":999,"REV_AT_EPOCH":6715,"BSTAR":0,"MEAN_MOTION_DOT":1.32e-6,"MEAN_MOTION_DDOT":0},{"OBJECT_NAME":"ASTRA 4A","OBJECT_ID":"2007-057A","EPOCH":"2026-03-04T09:02:38.798880","MEAN_MOTION":1.00273699,"ECCENTRICITY":0.00024603,"INCLINATION":0.0532,"RA_OF_ASC_NODE":293.7743,"ARG_OF_PERICENTER":53.9532,"MEAN_ANOMALY":314.868,"EPHEMERIS_TYPE":0,"CLASSIFICATION_TYPE":"U","NORAD_CAT_ID":32299,"ELEMENT_SET_NO":999,"REV_AT_EPOCH":5059,"BSTAR":0,"MEAN_MOTION_DOT":2.1e-7,"MEAN_MOTION_DDOT":0},{"OBJECT_NAME":"HORIZONS-2","OBJECT_ID":"2007-063B","EPOCH":"2026-03-04T08:09:38.820096","MEAN_MOTION":1.00271697,"ECCENTRICITY":0.00028225,"INCLINATION":2.3319,"RA_OF_ASC_NODE":81.9543,"ARG_OF_PERICENTER":256.0881,"MEAN_ANOMALY":232.6601,"EPHEMERIS_TYPE":0,"CLASSIFICATION_TYPE":"U","NORAD_CAT_ID":32388,"ELEMENT_SET_NO":999,"REV_AT_EPOCH":6676,"BSTAR":0,"MEAN_MOTION_DOT":-2.64e-6,"MEAN_MOTION_DDOT":0},{"OBJECT_NAME":"THURAYA-3","OBJECT_ID":"2008-001A","EPOCH":"2026-03-04T20:07:18.554016","MEAN_MOTION":1.00270609,"ECCENTRICITY":0.0002449,"INCLINATION":5.8131,"RA_OF_ASC_NODE":35.6038,"ARG_OF_PERICENTER":309.4194,"MEAN_ANOMALY":217.8689,"EPHEMERIS_TYPE":0,"CLASSIFICATION_TYPE":"U","NORAD_CAT_ID":32404,"ELEMENT_SET_NO":999,"REV_AT_EPOCH":6644,"BSTAR":0,"MEAN_MOTION_DOT":-3.09e-6,"MEAN_MOTION_DDOT":0},{"OBJECT_NAME":"EXPRESS-AM33","OBJECT_ID":"2008-003A","EPOCH":"2026-02-28T02:25:17.181120","MEAN_MOTION":1.00168878,"ECCENTRICITY":0.00146091,"INCLINATION":4.5219,"RA_OF_ASC_NODE":76.6684,"ARG_OF_PERICENTER":179.556,"MEAN_ANOMALY":341.8533,"EPHEMERIS_TYPE":0,"CLASSIFICATION_TYPE":"U","NORAD_CAT_ID":32478,"ELEMENT_SET_NO":999,"REV_AT_EPOCH":5264,"BSTAR":0,"MEAN_MOTION_DOT":1.28e-6,"MEAN_MOTION_DDOT":0},{"OBJECT_NAME":"THOR 5","OBJECT_ID":"2008-006A","EPOCH":"2026-03-04T07:34:38.765280","MEAN_MOTION":1.00272709,"ECCENTRICITY":0.00026954,"INCLINATION":0.0525,"RA_OF_ASC_NODE":258.6138,"ARG_OF_PERICENTER":95.7603,"MEAN_ANOMALY":280.5892,"EPHEMERIS_TYPE":0,"CLASSIFICATION_TYPE":"U","NORAD_CAT_ID":32487,"ELEMENT_SET_NO":999,"REV_AT_EPOCH":6626,"BSTAR":0,"MEAN_MOTION_DOT":-2.1e-7,"MEAN_MOTION_DDOT":0},{"OBJECT_NAME":"KIZUNA (WINDS)","OBJECT_ID":"2008-007A","EPOCH":"2026-03-03T19:11:23.872704","MEAN_MOTION":1.00284505,"ECCENTRICITY":0.00012066,"INCLINATION":8.2766,"RA_OF_ASC_NODE":63.3422,"ARG_OF_PERICENTER":204.089,"MEAN_ANOMALY":178.0145,"EPHEMERIS_TYPE":0,"CLASSIFICATION_TYPE":"U","NORAD_CAT_ID":32500,"ELEMENT_SET_NO":999,"REV_AT_EPOCH":6584,"BSTAR":0,"MEAN_MOTION_DOT":-4.6e-7,"MEAN_MOTION_DDOT":0},{"OBJECT_NAME":"DIRECTV 11","OBJECT_ID":"2008-013A","EPOCH":"2026-03-04T04:27:38.803392","MEAN_MOTION":1.00271748,"ECCENTRICITY":2.934e-5,"INCLINATION":0.0179,"RA_OF_ASC_NODE":324.7273,"ARG_OF_PERICENTER":11.5203,"MEAN_ANOMALY":153.3998,"EPHEMERIS_TYPE":0,"CLASSIFICATION_TYPE":"U","NORAD_CAT_ID":32729,"ELEMENT_SET_NO":999,"REV_AT_EPOCH":4454,"BSTAR":0,"MEAN_MOTION_DOT":-1.38e-6,"MEAN_MOTION_DDOT":0},{"OBJECT_NAME":"ICO G1","OBJECT_ID":"2008-016A","EPOCH":"2026-03-04T08:25:38.679168","MEAN_MOTION":1.0027105,"ECCENTRICITY":0.00026296,"INCLINATION":5.5108,"RA_OF_ASC_NODE":36.3775,"ARG_OF_PERICENTER":289.4961,"MEAN_ANOMALY":229.7741,"EPHEMERIS_TYPE":0,"CLASSIFICATION_TYPE":"U","NORAD_CAT_ID":32763,"ELEMENT_SET_NO":999,"REV_AT_EPOCH":6549,"BSTAR":0,"MEAN_MOTION_DOT":-1.81e-6,"MEAN_MOTION_DDOT":0},{"OBJECT_NAME":"VINASAT-1","OBJECT_ID":"2008-018A","EPOCH":"2026-03-04T17:32:38.522688","MEAN_MOTION":1.00270257,"ECCENTRICITY":0.000241,"INCLINATION":0.0518,"RA_OF_ASC_NODE":286.2645,"ARG_OF_PERICENTER":98.7936,"MEAN_ANOMALY":172.4933,"EPHEMERIS_TYPE":0,"CLASSIFICATION_TYPE":"U","NORAD_CAT_ID":32767,"ELEMENT_SET_NO":999,"REV_AT_EPOCH":6554,"BSTAR":0,"MEAN_MOTION_DOT":-3.39e-6,"MEAN_MOTION_DDOT":0},{"OBJECT_NAME":"STAR ONE C2","OBJECT_ID":"2008-018B","EPOCH":"2026-03-04T03:36:38.720160","MEAN_MOTION":1.00270026,"ECCENTRICITY":0.00028255,"INCLINATION":0.9721,"RA_OF_ASC_NODE":83.458,"ARG_OF_PERICENTER":265.2921,"MEAN_ANOMALY":162.2935,"EPHEMERIS_TYPE":0,"CLASSIFICATION_TYPE":"U","NORAD_CAT_ID":32768,"ELEMENT_SET_NO":999,"REV_AT_EPOCH":6560,"BSTAR":0,"MEAN_MOTION_DOT":-2.89e-6,"MEAN_MOTION_DDOT":0},{"OBJECT_NAME":"AMOS-3","OBJECT_ID":"2008-022A","EPOCH":"2026-03-04T09:10:38.507232","MEAN_MOTION":1.00272959,"ECCENTRICITY":0.00018515,"INCLINATION":0.1848,"RA_OF_ASC_NODE":89.0209,"ARG_OF_PERICENTER":186.0205,"MEAN_ANOMALY":20.6311,"EPHEMERIS_TYPE":0,"CLASSIFICATION_TYPE":"U","NORAD_CAT_ID":32794,"ELEMENT_SET_NO":999,"REV_AT_EPOCH":8128,"BSTAR":0,"MEAN_MOTION_DOT":-4.7e-7,"MEAN_MOTION_DDOT":0},{"OBJECT_NAME":"GALAXY 18 (G-18)","OBJECT_ID":"2008-024A","EPOCH":"2026-03-04T09:41:38.546304","MEAN_MOTION":1.00270856,"ECCENTRICITY":0.0003198,"INCLINATION":0.0238,"RA_OF_ASC_NODE":162.5598,"ARG_OF_PERICENTER":205.014,"MEAN_ANOMALY":177.0059,"EPHEMERIS_TYPE":0,"CLASSIFICATION_TYPE":"U","NORAD_CAT_ID":32951,"ELEMENT_SET_NO":999,"REV_AT_EPOCH":4480,"BSTAR":0,"MEAN_MOTION_DOT":0,"MEAN_MOTION_DDOT":0},{"OBJECT_NAME":"ZHONGXING-9","OBJECT_ID":"2008-028A","EPOCH":"2026-03-04T21:56:23.087904","MEAN_MOTION":1.00272318,"ECCENTRICITY":0.0008965,"INCLINATION":0.5022,"RA_OF_ASC_NODE":87.0355,"ARG_OF_PERICENTER":238.6061,"MEAN_ANOMALY":258.4872,"EPHEMERIS_TYPE":0,"CLASSIFICATION_TYPE":"U","NORAD_CAT_ID":33051,"ELEMENT_SET_NO":999,"REV_AT_EPOCH":6499,"BSTAR":0,"MEAN_MOTION_DOT":-2.58e-6,"MEAN_MOTION_DDOT":0},{"OBJECT_NAME":"SKYNET 5C","OBJECT_ID":"2008-030A","EPOCH":"2026-03-04T10:44:38.580000","MEAN_MOTION":1.00271213,"ECCENTRICITY":0.0005023,"INCLINATION":3.5211,"RA_OF_ASC_NODE":78.2903,"ARG_OF_PERICENTER":279.6443,"MEAN_ANOMALY":307.5959,"EPHEMERIS_TYPE":0,"CLASSIFICATION_TYPE":"U","NORAD_CAT_ID":33055,"ELEMENT_SET_NO":999,"REV_AT_EPOCH":6490,"BSTAR":0,"MEAN_MOTION_DOT":-1.5e-6,"MEAN_MOTION_DDOT":0},{"OBJECT_NAME":"TURKSAT 3A","OBJECT_ID":"2008-030B","EPOCH":"2026-03-04T05:49:38.654400","MEAN_MOTION":1.00274599,"ECCENTRICITY":0.00046002,"INCLINATION":0.0164,"RA_OF_ASC_NODE":93.471,"ARG_OF_PERICENTER":274.9397,"MEAN_ANOMALY":282.9735,"EPHEMERIS_TYPE":0,"CLASSIFICATION_TYPE":"U","NORAD_CAT_ID":33056,"ELEMENT_SET_NO":999,"REV_AT_EPOCH":5130,"BSTAR":0,"MEAN_MOTION_DOT":1.34e-6,"MEAN_MOTION_DDOT":0}]
