WGS F1 (USA 195)        
1 32258U 07046A   26063.33794595 -.00000279  00000+0  00000+0 0  9996
2 32258   0.0806  87.7283 0000285 201.3899 312.1055  1.00276051 51283
SKYNET 5B               
1 32294U 07056B   26063.84787973  .00000132  00000+0  00000+0 0  9992
2 32294   4.9861  74.7479 0004012 269.1783 148.9531  1.00271170 67150
ASTRA 4A                
1 32299U 07057A   26063.37683795  .00000021  00000+0  00000+0 0  9990
2 32299   0.0532 293.7743 0002460  53.9532 314.8680  1.00273699 50597
HORIZONS-2              
1 32388U 07063B   26063.34003264 -.00000264  00000+0  00000+0 0  9990
2 32388   2.3319  81.9543 0002822 256.0881 232.6601  1.00271697 66766
THURAYA-3               
1 32404U 08001A   26063.83840919 -.00000309  00000+0  00000+0 0  9992
2 32404   5.8131  35.6038 0002449 309.4194 217.8689  1.00270609 66443
EXPRESS-AM33            
1 32478U 08003A   26059.10089330  .00000128  00000+0  00000+0 0  9990
2 32478   4.5219  76.6684 0014609 179.5560 341.8533  1.00168878 52640
THOR 5                  
1 32487U 08006A   26063.31572645 -.00000021  00000+0  00000+0 0  9990
2 32487   0.0525 258.6138 0002695  95.7603 280.5892  1.00272709 66265
KIZUNA (WINDS)          
1 32500U 08007A   26062.79958186 -.00000046  00000+0  00000+0 0  9993
2 32500   8.2766  63.3422 0001206 204.0890 178.0145  1.00284505 65847
DIRECTV 11              
1 32729U 08013A   26063.18586578 -.00000138  00000+0  00000+0 0  9991
2 32729   0.0179 324.7273 0000293  11.5203 153.3998  1.00271748 44541
ICO G1                  
1 32763U 08016A   26063.35114212 -.00000181  00000+0  00000+0 0  9991
2 32763   5.5108  36.3775 0002629 289.4961 229.7741  1.00271050 65493
VINASAT-1               
1 32767U 08018A   26063.73100142 -.00000339  00000+0  00000+0 0  9991
2 32767   0.0518 286.2645 0002410  98.7936 172.4933  1.00270257 65546
STAR ONE C2             
1 32768U 08018B   26063.15044815 -.00000289  00000+0  00000+0 0  9996
2 32768   0.9721  83.4580 0002825 265.2921 162.2935  1.00270026 65602
AMOS-3                  
1 32794U 08022A   26063.38239013 -.00000047  00000+0  00000+0 0  9993
2 32794   0.1848  89.0209 0001851 186.0205  20.6311  1.00272959 81280
GALAXY 18 (G-18)        
1 32951U 08024A   26063.40391836  .00000000  00000+0  00000+0 0  9993
2 32951   0.0238 162.5598 0003198 205.0140 177.0059  1.00270856 44808
ZHONGXING-9             
1 33051U 08028A   26063.91415611 -.00000258  00000+0  00000+0 0  9999
2 33051   0.5022  87.0355 0008965 238.6061 258.4872  1.00272318 64993
SKYNET 5C               
1 33055U 08030A   26063.44766875 -.00000150  00000+0  00000+0 0  9996
2 33055   3.5211  78.2903 0005023 279.6443 307.5959  1.00271213 64908
TURKSAT 3A              
1 33056U 08030B   26063.24280850  .00000134  00000+0  00000+0 0  9990
2 33056   0.0164  93.4710 0004600 274.9397 282.9735  1.00274599 51307
